{"type": "FeatureCollection", "features": [ {"type": "Feature", "properties": {"norad_id": 32234, "name": "FENGYUN 1C DEB", "group": "fengyun-1c-debris", "lat": 12.013609830103627, "lon": 10.22161295112817, "alt_km": 1013.4582545469102, "timestamp": "2025-12-03T20:47:58.510292+00:00", "meta": {"OBJECT_NAME": "FENGYUN 1C DEB", "OBJECT_ID": "1999-025CWG", "EPOCH": "2025-12-02T12:59:39.185664", "MEAN_MOTION": 13.9406659, "ECCENTRICITY": 0.0137699, "INCLINATION": 98.5292, "RA_OF_ASC_NODE": 187.1676, "ARG_OF_PERICENTER": 4.214, "MEAN_ANOMALY": 356.0148, "EPHEMERIS_TYPE": 0, "CLASSIFICATION_TYPE": "U", "NORAD_CAT_ID": 32234, "ELEMENT_SET_NO": 999, "REV_AT_EPOCH": 93067, "BSTAR": 0.0016148587, "MEAN_MOTION_DOT": 2.273e-05, "MEAN_MOTION_DDOT": 0}, "tle": {"line1": "1 32234U 99025CWG 25336.54142576  .00002273  00000+0  16149-2 0  9998", "line2": "2 32234  98.5292 187.1676 0137699   4.2140 356.0148 13.94066590930678"}}, "geometry": {"type": "Point", "coordinates": [10.22161295112817, 12.013609830103627]}}, {"type": "Feature", "properties": {"norad_id": 32241, "name": "FENGYUN 1C DEB", "group": "fengyun-1c-debris", "lat": 3.1004321626344855, "lon": -172.5432020785655, "alt_km": 765.7377977635088, "timestamp": "2025-12-03T20:47:58.510302+00:00", "meta": {"OBJECT_NAME": "FENGYUN 1C DEB", "OBJECT_ID": "1999-025CWP", "EPOCH": "2025-11-30T21:21:41.757696", "MEAN_MOTION": 14.28586446, "ECCENTRICITY": 0.01459462, "INCLINATION": 99.0795, "RA_OF_ASC_NODE": 3.8635, "ARG_OF_PERICENTER": 257.6893, "MEAN_ANOMALY": 100.7915, "EPHEMERIS_TYPE": 0, "CLASSIFICATION_TYPE": "U", "NORAD_CAT_ID": 32241, "ELEMENT_SET_NO": 999, "REV_AT_EPOCH": 93654, "BSTAR": 0.0016863923, "MEAN_MOTION_DOT": 4.696e-05, "MEAN_MOTION_DDOT": 0}, "tle": {"line1": "1 32241U 99025CWP 25334.89006664  .00004696  00000+0  16864-2 0  9994", "line2": "2 32241  99.0795   3.8635 0145946 257.6893 100.7915 14.28586446936545"}}, "geometry": {"type": "Point", "coordinates": [-172.5432020785655, 3.1004321626344855]}}, {"type": "Feature", "properties": {"norad_id": 32243, "name": "FENGYUN 1C DEB", "group": "fengyun-1c-debris", "lat": 4.28229291466264, "lon": -176.10451505983093, "alt_km": 705.0434218405962, "timestamp": "2025-12-03T20:47:58.510313+00:00", "meta": {"OBJECT_NAME": "FENGYUN 1C DEB", "OBJECT_ID": "1999-025CWR", "EPOCH": "2025-12-03T08:00:42.823008", "MEAN_MOTION": 14.04487522, "ECCENTRICITY": 0.0269371, "INCLINATION": 98.2711, "RA_OF_ASC_NODE": 2.7852, "ARG_OF_PERICENTER": 150.2877, "MEAN_ANOMALY": 211.3904, "EPHEMERIS_TYPE": 0, "CLASSIFICATION_TYPE": "U", "NORAD_CAT_ID": 32243, "ELEMENT_SET_NO": 999, "REV_AT_EPOCH": 93456, "BSTAR": 0.0021988, "MEAN_MOTION_DOT": 4.814e-05, "MEAN_MOTION_DDOT": 0}, "tle": {"line1": "1 32243U 99025CWR 25337.33382897  .00004814  00000+0  21988-2 0  9998", "line2": "2 32243  98.2711   2.7852 0269371 150.2877 211.3904 14.04487522934560"}}, "geometry": {"type": "Point", "coordinates": [-176.10451505983093, 4.28229291466264]}}, {"type": "Feature", "properties": {"norad_id": 32245, "name": "FENGYUN 1C DEB", "group": "fengyun-1c-debris", "lat": -63.16398131483547, "lon": -169.20292220595041, "alt_km": 627.5737786022601, "timestamp": "2025-12-03T20:47:58.510323+00:00", "meta": {"OBJECT_NAME": "FENGYUN 1C DEB", "OBJECT_ID": "1999-025CWT", "EPOCH": "2025-11-30T06:53:48.437088", "MEAN_MOTION": 14.76630741, "ECCENTRICITY": 0.00984246, "INCLINATION": 98.6553, "RA_OF_ASC_NODE": 169.4391, "ARG_OF_PERICENTER": 21.1118, "MEAN_ANOMALY": 339.4109, "EPHEMERIS_TYPE": 0, "CLASSIFICATION_TYPE": "U", "NORAD_CAT_ID": 32245, "ELEMENT_SET_NO": 999, "REV_AT_EPOCH": 65922, "BSTAR": 0.0012142086, "MEAN_MOTION_DOT": 9.134e-05, "MEAN_MOTION_DDOT": 0}, "tle": {"line1": "1 32245U 99025CWT 25334.28736617  .00009134  00000+0  12142-2 0  9996", "line2": "2 32245  98.6553 169.4391 0098424  21.1118 339.4109 14.76630741659220"}}, "geometry": {"type": "Point", "coordinates": [-169.20292220595041, -63.16398131483547]}}, {"type": "Feature", "properties": {"norad_id": 32304, "name": "FENGYUN 1C DEB", "group": "fengyun-1c-debris", "lat": 56.129993010200636, "lon": -82.86838362748536, "alt_km": 752.7198571056178, "timestamp": "2025-12-03T20:47:58.510334+00:00", "meta": {"OBJECT_NAME": "FENGYUN 1C DEB", "OBJECT_ID": "1999-025CWV", "EPOCH": "2025-12-03T02:19:20.087328", "MEAN_MOTION": 14.50391603, "ECCENTRICITY": 0.00495576, "INCLINATION": 99.3949, "RA_OF_ASC_NODE": 290.5539, "ARG_OF_PERICENTER": 255.7789, "MEAN_ANOMALY": 103.7894, "EPHEMERIS_TYPE": 0, "CLASSIFICATION_TYPE": "U", "NORAD_CAT_ID": 32304, "ELEMENT_SET_NO": 999, "REV_AT_EPOCH": 56133, "BSTAR": 0.0019806873, "MEAN_MOTION_DOT": 7.809e-05, "MEAN_MOTION_DDOT": 0}, "tle": {"line1": "1 32304U 99025CWV 25337.09676027  .00007809  00000+0  19807-2 0  9994", "line2": "2 32304  99.3949 290.5539 0049557 255.7789 103.7894 14.50391603561335"}}, "geometry": {"type": "Point", "coordinates": [-82.86838362748536, 56.129993010200636]}}, {"type": "Feature", "properties": {"norad_id": 32308, "name": "FENGYUN 1C DEB", "group": "fengyun-1c-debris", "lat": -43.64547589928324, "lon": 39.51190117687715, "alt_km": 932.618677039628, "timestamp": "2025-12-03T20:47:58.510346+00:00", "meta": {"OBJECT_NAME": "FENGYUN 1C DEB", "OBJECT_ID": "1999-025CWZ", "EPOCH": "2025-12-03T02:12:55.939104", "MEAN_MOTION": 14.05417361, "ECCENTRICITY": 0.01095705, "INCLINATION": 97.7759, "RA_OF_ASC_NODE": 31.3586, "ARG_OF_PERICENTER": 88.4654, "MEAN_ANOMALY": 272.9065, "EPHEMERIS_TYPE": 0, "CLASSIFICATION_TYPE": "U", "NORAD_CAT_ID": 32308, "ELEMENT_SET_NO": 999, "REV_AT_EPOCH": 65276, "BSTAR": 0.002206276, "MEAN_MOTION_DOT": 3.744e-05, "MEAN_MOTION_DDOT": 0}, "tle": {"line1": "1 32308U 99025CWZ 25337.09231411  .00003744  00000+0  22063-2 0  9994", "line2": "2 32308  97.7759  31.3586 0109570  88.4654 272.9065 14.05417361652764"}}, "geometry": {"type": "Point", "coordinates": [39.51190117687715, -43.64547589928324]}}, {"type": "Feature", "properties": {"norad_id": 32314, "name": "FENGYUN 1C DEB", "group": "fengyun-1c-debris", "lat": -21.05321906546271, "lon": 85.44521093686791, "alt_km": 731.0910824574321, "timestamp": "2025-12-03T20:47:58.510356+00:00", "meta": {"OBJECT_NAME": "FENGYUN 1C DEB", "OBJECT_ID": "1999-025CXF", "EPOCH": "2025-11-26T00:32:23.011584", "MEAN_MOTION": 14.78803855, "ECCENTRICITY": 0.01504605, "INCLINATION": 98.8637, "RA_OF_ASC_NODE": 73.3622, "ARG_OF_PERICENTER": 210.3969, "MEAN_ANOMALY": 148.8452, "EPHEMERIS_TYPE": 0, "CLASSIFICATION_TYPE": "U", "NORAD_CAT_ID": 32314, "ELEMENT_SET_NO": 999, "REV_AT_EPOCH": 97183, "BSTAR": 0.0018186023, "MEAN_MOTION_DOT": 0.00016147, "MEAN_MOTION_DDOT": 0}, "tle": {"line1": "1 32314U 99025CXF 25330.02248856  .00016147  00000+0  18186-2 0  9990", "line2": "2 32314  98.8637  73.3622 0150460 210.3969 148.8452 14.78803855971834"}}, "geometry": {"type": "Point", "coordinates": [85.44521093686791, -21.05321906546271]}}, {"type": "Feature", "properties": {"norad_id": 32315, "name": "FENGYUN 1C DEB", "group": "fengyun-1c-debris", "lat": 67.71236755038974, "lon": 92.22862768694006, "alt_km": 934.1477544467789, "timestamp": "2025-12-03T20:47:58.510366+00:00", "meta": {"OBJECT_NAME": "FENGYUN 1C DEB", "OBJECT_ID": "1999-025CXG", "EPOCH": "2025-11-20T16:04:27.676128", "MEAN_MOTION": 13.66155502, "ECCENTRICITY": 0.02289149, "INCLINATION": 100.8052, "RA_OF_ASC_NODE": 105.2905, "ARG_OF_PERICENTER": 168.6, "MEAN_ANOMALY": 192.0449, "EPHEMERIS_TYPE": 0, "CLASSIFICATION_TYPE": "U", "NORAD_CAT_ID": 32315, "ELEMENT_SET_NO": 999, "REV_AT_EPOCH": 60787, "BSTAR": 0.00024184327, "MEAN_MOTION_DOT": 1.85e-06, "MEAN_MOTION_DDOT": 0}, "tle": {"line1": "1 32315U 99025CXG 25324.66976477  .00000185  00000+0  24184-3 0  9992", "line2": "2 32315 100.8052 105.2905 0228914 168.6000 192.0449 13.66155502607872"}}, "geometry": {"type": "Point", "coordinates": [92.22862768694006, 67.71236755038974]}}, {"type": "Feature", "properties": {"norad_id": 32316, "name": "FENGYUN 1C DEB", "group": "fengyun-1c-debris", "lat": 32.429435495640725, "lon": -170.7232707033448, "alt_km": 734.7861418797756, "timestamp": "2025-12-03T20:47:58.510377+00:00", "meta": {"OBJECT_NAME": "FENGYUN 1C DEB", "OBJECT_ID": "1999-025CXH", "EPOCH": "2025-12-02T20:07:23.464992", "MEAN_MOTION": 14.51637168, "ECCENTRICITY": 0.00267203, "INCLINATION": 99.5304, "RA_OF_ASC_NODE": 1.9849, "ARG_OF_PERICENTER": 359.4201, "MEAN_ANOMALY": 177.2227, "EPHEMERIS_TYPE": 0, "CLASSIFICATION_TYPE": "U", "NORAD_CAT_ID": 32316, "ELEMENT_SET_NO": 999, "REV_AT_EPOCH": 95633, "BSTAR": 0.002174683, "MEAN_MOTION_DOT": 8.712e-05, "MEAN_MOTION_DDOT": 0}, "tle": {"line1": "1 32316U 99025CXH 25336.83846603  .00008712  00000+0  21747-2 0  9997", "line2": "2 32316  99.5304   1.9849 0026720 359.4201 177.2227 14.51637168956335"}}, "geometry": {"type": "Point", "coordinates": [-170.7232707033448, 32.429435495640725]}}, {"type": "Feature", "properties": {"norad_id": 32320, "name": "FENGYUN 1C DEB", "group": "fengyun-1c-debris", "lat": -17.66518584322546, "lon": 9.81387275594226, "alt_km": 799.38413555226, "timestamp": "2025-12-03T20:47:58.510387+00:00", "meta": {"OBJECT_NAME": "FENGYUN 1C DEB", "OBJECT_ID": "1999-025CXM", "EPOCH": "2025-12-01T19:23:39.723360", "MEAN_MOTION": 14.36057731, "ECCENTRICITY": 0.00558837, "INCLINATION": 100.3751, "RA_OF_ASC_NODE": 190.6853, "ARG_OF_PERICENTER": 78.2143, "MEAN_ANOMALY": 282.5298, "EPHEMERIS_TYPE": 0, "CLASSIFICATION_TYPE": "U", "NORAD_CAT_ID": 32320, "ELEMENT_SET_NO": 999, "REV_AT_EPOCH": 62016, "BSTAR": 0.00080169861, "MEAN_MOTION_DOT": 2.315e-05, "MEAN_MOTION_DDOT": 0}, "tle": {"line1": "1 32320U 99025CXM 25335.80809865  .00002315  00000+0  80170-3 0  9996", "line2": "2 32320 100.3751 190.6853 0055883  78.2143 282.5298 14.36057731620163"}}, "geometry": {"type": "Point", "coordinates": [9.81387275594226, -17.66518584322546]}}]}